[{"OBJECT_NAME":"SHIYAN-20C (SY-20C)","OBJECT_ID":"2022-142A","EPOCH":"2026-03-09T23:50:52.089216","MEAN_MOTION":14.29489925,"ECCENTRICITY":0.00131159,"INCLINATION":59.9943,"RA_OF_ASC_NODE":268.1651,"ARG_OF_PERICENTER":188.0899,"MEAN_ANOMALY":171.9927,"EPHEMERIS_TYPE":0,"CLASSIFICATION_TYPE":"U","NORAD_CAT_ID":54214,"ELEMENT_SET_NO":999,"REV_AT_EPOCH":17551,"BSTAR":7.6576353e-5,"MEAN_MOTION_DOT":6.0e-7,"MEAN_MOTION_DDOT":0},{"OBJECT_NAME":"NOAA 16 DEB","OBJECT_ID":"2000-055NN","EPOCH":"2026-03-08T19:01:57.852480","MEAN_MOTION":14.17662479,"ECCENTRICITY":0.00434312,"INCLINATION":98.7566,"RA_OF_ASC_NODE":69.8489,"ARG_OF_PERICENTER":199.3012,"MEAN_ANOMALY":160.652,"EPHEMERIS_TYPE":0,"CLASSIFICATION_TYPE":"U","NORAD_CAT_ID":41538,"ELEMENT_SET_NO":999,"REV_AT_EPOCH":51838,"BSTAR":0.0025147677,"MEAN_MOTION_DOT":5.124e-5,"MEAN_MOTION_DDOT":0}]
